STARLINK-35843          
1 67606U 26018T   26050.36801633  .00090376  00000+0  59975-3 0  9997
2 67606  97.2841 115.2718 0001191  93.1669 266.9732 15.75215019  4420
STARLINK-36351          
1 67607U 26018U   26050.50003471 -.00004462  00000+0 -29078-4 0  9993
2 67607  97.2850 115.4438 0001129  73.5739  32.6715 15.75175833  4487
STARLINK-36411          
1 67608U 26018V   26050.47261968  .00211641  00000+0  10763-2 0  9993
2 67608  97.2854 115.4330 0001356  95.2780 264.8643 15.80872943  4449
STARLINK-36312          
1 67609U 26018W   26050.50003471  .00160371  00000+0  10603-2 0  9997
2 67609  97.2850 115.4496 0001284 104.2056  14.0627 15.75096395  4480
STARLINK-36387          
1 67610U 26018X   26050.46999514  .00167033  00000+0  85480-3 0  9994
2 67610  97.2852 115.4369 0001325  75.3311 284.8104 15.80851295  4448
STARLINK-36636          
1 67611U 26018Y   26050.34231432  .00261486  00000+0  13190-2 0  9995
2 67611  97.2870 115.2975 0001432  54.0910 306.0491 15.80920966  4424
STARLINK-36407          
1 67612U 26018Z   26050.50003471 -.00039287  00000+0 -26360-3 0  9992
2 67612  97.2846 115.4643 0001464  90.6300  63.5986 15.75201887  4530
STARLINK-36597          
1 67613U 26018AA  26050.34037947  .00167054  00000+0  85446-3 0  9992
2 67613  97.2854 115.3061 0001994  37.7436 322.3972 15.80861902  4428
NEONSAT-1A              
1 67614U 26019A   26050.39558260  .00003442  00000+0  22960-3 0  9997
2 67614  97.4104 174.6307 0012157 232.5200 127.4924 15.07633050  3067
ELECTRON KICK STAGE R/B 
1 67616U 26019C   26050.29478905  .00456956  63724-4  19335-2 0  9995
2 67616  97.4037 176.1354 0163893 189.1618 170.6646 15.67780680  3156
STARLINK-36548          
1 67617U 26020A   26049.99050280  .00328675  00000+0  19175-2 0  9996
2 67617  42.9971 255.9289 0002864 262.5909  97.4635 15.76676826  3139
STARLINK-36601          
1 67618U 26020B   26050.02081987  .00269721  00000+0  12393-2 0  9992
2 67618  42.9987 255.2751 0002016 260.1769  99.8875 15.82095833  3144
