CCSDS_OMM_VERS = 2.0
CREATION_DATE  = 
ORIGINATOR     = 

OBJECT_NAME    = STARLINK-35843
OBJECT_ID      = 2026-018T
CENTER_NAME    = EARTH
REF_FRAME      = TEME
TIME_SYSTEM    = UTC
MEAN_ELEMENT_THEORY = SGP/SGP4

EPOCH          = 2026-02-19T08:49:56.610912
MEAN_MOTION    = 15.75215019
ECCENTRICITY   = .0001191
INCLINATION    = 97.2841
RA_OF_ASC_NODE = 115.2718
ARG_OF_PERICENTER = 93.1669
MEAN_ANOMALY   = 266.9732

EPHEMERIS_TYPE = 0
CLASSIFICATION_TYPE = U
NORAD_CAT_ID   = 67606
ELEMENT_SET_NO = 999
REV_AT_EPOCH   = 442
BSTAR          = .59975E-3
MEAN_MOTION_DOT = .90376E-3
MEAN_MOTION_DDOT = 0

CCSDS_OMM_VERS = 2.0
CREATION_DATE  = 
ORIGINATOR     = 

OBJECT_NAME    = STARLINK-36351
OBJECT_ID      = 2026-018U
CENTER_NAME    = EARTH
REF_FRAME      = TEME
TIME_SYSTEM    = UTC
MEAN_ELEMENT_THEORY = SGP/SGP4

EPOCH          = 2026-02-19T12:00:02.998944
MEAN_MOTION    = 15.75175833
ECCENTRICITY   = .0001129
INCLINATION    = 97.2850
RA_OF_ASC_NODE = 115.4438
ARG_OF_PERICENTER = 73.5739
MEAN_ANOMALY   = 32.6715

EPHEMERIS_TYPE = 0
CLASSIFICATION_TYPE = U
NORAD_CAT_ID   = 67607
ELEMENT_SET_NO = 999
REV_AT_EPOCH   = 448
BSTAR          = -.29078E-4
MEAN_MOTION_DOT = -.4462E-4
MEAN_MOTION_DDOT = 0

CCSDS_OMM_VERS = 2.0
CREATION_DATE  = 
ORIGINATOR     = 

OBJECT_NAME    = STARLINK-36411
OBJECT_ID      = 2026-018V
CENTER_NAME    = EARTH
REF_FRAME      = TEME
TIME_SYSTEM    = UTC
MEAN_ELEMENT_THEORY = SGP/SGP4

EPOCH          = 2026-02-19T11:20:34.340352
MEAN_MOTION    = 15.80872943
ECCENTRICITY   = .0001356
INCLINATION    = 97.2854
RA_OF_ASC_NODE = 115.4330
ARG_OF_PERICENTER = 95.2780
MEAN_ANOMALY   = 264.8643

EPHEMERIS_TYPE = 0
CLASSIFICATION_TYPE = U
NORAD_CAT_ID   = 67608
ELEMENT_SET_NO = 999
REV_AT_EPOCH   = 444
BSTAR          = .10763E-2
MEAN_MOTION_DOT = .211641E-2
MEAN_MOTION_DDOT = 0

CCSDS_OMM_VERS = 2.0
CREATION_DATE  = 
ORIGINATOR     = 

OBJECT_NAME    = STARLINK-36312
OBJECT_ID      = 2026-018W
CENTER_NAME    = EARTH
REF_FRAME      = TEME
TIME_SYSTEM    = UTC
MEAN_ELEMENT_THEORY = SGP/SGP4

EPOCH          = 2026-02-19T12:00:02.998944
MEAN_MOTION    = 15.75096395
ECCENTRICITY   = .0001284
INCLINATION    = 97.2850
RA_OF_ASC_NODE = 115.4496
ARG_OF_PERICENTER = 104.2056
MEAN_ANOMALY   = 14.0627

EPHEMERIS_TYPE = 0
CLASSIFICATION_TYPE = U
NORAD_CAT_ID   = 67609
ELEMENT_SET_NO = 999
REV_AT_EPOCH   = 448
BSTAR          = .10603E-2
MEAN_MOTION_DOT = .160371E-2
MEAN_MOTION_DDOT = 0

CCSDS_OMM_VERS = 2.0
CREATION_DATE  = 
ORIGINATOR     = 

OBJECT_NAME    = STARLINK-36387
OBJECT_ID      = 2026-018X
CENTER_NAME    = EARTH
REF_FRAME      = TEME
TIME_SYSTEM    = UTC
MEAN_ELEMENT_THEORY = SGP/SGP4

EPOCH          = 2026-02-19T11:16:47.580096
MEAN_MOTION    = 15.80851295
ECCENTRICITY   = .0001325
INCLINATION    = 97.2852
RA_OF_ASC_NODE = 115.4369
ARG_OF_PERICENTER = 75.3311
MEAN_ANOMALY   = 284.8104

EPHEMERIS_TYPE = 0
CLASSIFICATION_TYPE = U
NORAD_CAT_ID   = 67610
ELEMENT_SET_NO = 999
REV_AT_EPOCH   = 444
BSTAR          = .8548E-3
MEAN_MOTION_DOT = .167033E-2
MEAN_MOTION_DDOT = 0

CCSDS_OMM_VERS = 2.0
CREATION_DATE  = 
ORIGINATOR     = 

OBJECT_NAME    = STARLINK-36636
OBJECT_ID      = 2026-018Y
CENTER_NAME    = EARTH
REF_FRAME      = TEME
TIME_SYSTEM    = UTC
MEAN_ELEMENT_THEORY = SGP/SGP4

EPOCH          = 2026-02-19T08:12:55.957248
MEAN_MOTION    = 15.80920966
ECCENTRICITY   = .0001432
INCLINATION    = 97.2870
RA_OF_ASC_NODE = 115.2975
ARG_OF_PERICENTER = 54.0910
MEAN_ANOMALY   = 306.0491

EPHEMERIS_TYPE = 0
CLASSIFICATION_TYPE = U
NORAD_CAT_ID   = 67611
ELEMENT_SET_NO = 999
REV_AT_EPOCH   = 442
BSTAR          = .1319E-2
MEAN_MOTION_DOT = .261486E-2
MEAN_MOTION_DDOT = 0

CCSDS_OMM_VERS = 2.0
CREATION_DATE  = 
ORIGINATOR     = 

OBJECT_NAME    = STARLINK-36407
OBJECT_ID      = 2026-018Z
CENTER_NAME    = EARTH
REF_FRAME      = TEME
TIME_SYSTEM    = UTC
MEAN_ELEMENT_THEORY = SGP/SGP4

EPOCH          = 2026-02-19T12:00:02.998944
MEAN_MOTION    = 15.75201887
ECCENTRICITY   = .0001464
INCLINATION    = 97.2846
RA_OF_ASC_NODE = 115.4643
ARG_OF_PERICENTER = 90.6300
MEAN_ANOMALY   = 63.5986

EPHEMERIS_TYPE = 0
CLASSIFICATION_TYPE = U
NORAD_CAT_ID   = 67612
ELEMENT_SET_NO = 999
REV_AT_EPOCH   = 453
BSTAR          = -.2636E-3
MEAN_MOTION_DOT = -.39287E-3
MEAN_MOTION_DDOT = 0

CCSDS_OMM_VERS = 2.0
CREATION_DATE  = 
ORIGINATOR     = 

OBJECT_NAME    = STARLINK-36597
OBJECT_ID      = 2026-018AA
CENTER_NAME    = EARTH
REF_FRAME      = TEME
TIME_SYSTEM    = UTC
MEAN_ELEMENT_THEORY = SGP/SGP4

EPOCH          = 2026-02-19T08:10:08.786208
MEAN_MOTION    = 15.80861902
ECCENTRICITY   = .0001994
INCLINATION    = 97.2854
RA_OF_ASC_NODE = 115.3061
ARG_OF_PERICENTER = 37.7436
MEAN_ANOMALY   = 322.3972

EPHEMERIS_TYPE = 0
CLASSIFICATION_TYPE = U
NORAD_CAT_ID   = 67613
ELEMENT_SET_NO = 999
REV_AT_EPOCH   = 442
BSTAR          = .85446E-3
MEAN_MOTION_DOT = .167054E-2
MEAN_MOTION_DDOT = 0

CCSDS_OMM_VERS = 2.0
CREATION_DATE  = 
ORIGINATOR     = 

OBJECT_NAME    = NEONSAT-1A
OBJECT_ID      = 2026-019A
CENTER_NAME    = EARTH
REF_FRAME      = TEME
TIME_SYSTEM    = UTC
MEAN_ELEMENT_THEORY = SGP/SGP4

EPOCH          = 2026-02-19T09:29:38.336640
MEAN_MOTION    = 15.07633050
ECCENTRICITY   = .0012157
INCLINATION    = 97.4104
RA_OF_ASC_NODE = 174.6307
ARG_OF_PERICENTER = 232.5200
MEAN_ANOMALY   = 127.4924

EPHEMERIS_TYPE = 0
CLASSIFICATION_TYPE = U
NORAD_CAT_ID   = 67614
ELEMENT_SET_NO = 999
REV_AT_EPOCH   = 306
BSTAR          = .2296E-3
MEAN_MOTION_DOT = .3442E-4
MEAN_MOTION_DDOT = 0

CCSDS_OMM_VERS = 2.0
CREATION_DATE  = 
ORIGINATOR     = 

OBJECT_NAME    = ELECTRON KICK STAGE R/B
OBJECT_ID      = 2026-019C
CENTER_NAME    = EARTH
REF_FRAME      = TEME
TIME_SYSTEM    = UTC
MEAN_ELEMENT_THEORY = SGP/SGP4

EPOCH          = 2026-02-19T07:04:29.773920
MEAN_MOTION    = 15.67780680
ECCENTRICITY   = .0163893
INCLINATION    = 97.4037
RA_OF_ASC_NODE = 176.1354
ARG_OF_PERICENTER = 189.1618
MEAN_ANOMALY   = 170.6646

EPHEMERIS_TYPE = 0
CLASSIFICATION_TYPE = U
NORAD_CAT_ID   = 67616
ELEMENT_SET_NO = 999
REV_AT_EPOCH   = 315
BSTAR          = .19335E-2
MEAN_MOTION_DOT = .456956E-2
MEAN_MOTION_DDOT = .63724E-4

CCSDS_OMM_VERS = 2.0
CREATION_DATE  = 
ORIGINATOR     = 

OBJECT_NAME    = STARLINK-36548
OBJECT_ID      = 2026-020A
CENTER_NAME    = EARTH
REF_FRAME      = TEME
TIME_SYSTEM    = UTC
MEAN_ELEMENT_THEORY = SGP/SGP4

EPOCH          = 2026-02-18T23:46:19.441920
MEAN_MOTION    = 15.76676826
ECCENTRICITY   = .00028649
INCLINATION    = 42.9971
RA_OF_ASC_NODE = 255.9289
ARG_OF_PERICENTER = 262.5909
MEAN_ANOMALY   = 97.4635

EPHEMERIS_TYPE = 0
CLASSIFICATION_TYPE = U
NORAD_CAT_ID   = 67617
ELEMENT_SET_NO = 999
REV_AT_EPOCH   = 313
BSTAR          = .19175244E-2
MEAN_MOTION_DOT = .328675E-2
MEAN_MOTION_DDOT = 0

CCSDS_OMM_VERS = 2.0
CREATION_DATE  = 
ORIGINATOR     = 

OBJECT_NAME    = STARLINK-36601
OBJECT_ID      = 2026-020B
CENTER_NAME    = EARTH
REF_FRAME      = TEME
TIME_SYSTEM    = UTC
MEAN_ELEMENT_THEORY = SGP/SGP4

EPOCH          = 2026-02-19T00:29:58.836768
MEAN_MOTION    = 15.82095833
ECCENTRICITY   = .00020164
INCLINATION    = 42.9987
RA_OF_ASC_NODE = 255.2751
ARG_OF_PERICENTER = 260.1769
MEAN_ANOMALY   = 99.8875

EPHEMERIS_TYPE = 0
CLASSIFICATION_TYPE = U
NORAD_CAT_ID   = 67618
ELEMENT_SET_NO = 999
REV_AT_EPOCH   = 314
BSTAR          = .12393042E-2
MEAN_MOTION_DOT = .269721E-2
MEAN_MOTION_DDOT = 0

